{"type": "FeatureCollection", "features": [ {"type": "Feature", "properties": {"norad_id": 66483, "name": "STARLINK-35654", "group": "last-30-days", "lat": -8.973658344804907, "lon": -80.19502388106562, "alt_km": 415.75927847342973, "timestamp": "2025-12-09T11:33:53.574812+00:00", "meta": {"OBJECT_NAME": "STARLINK-35654", "OBJECT_ID": "2025-262AD", "EPOCH": "2025-12-09T00:00:02.000160", "MEAN_MOTION": 15.50585225, "ECCENTRICITY": 0.0001552, "INCLINATION": 43.0007, "RA_OF_ASC_NODE": 92.8677, "ARG_OF_PERICENTER": 269.4145, "MEAN_ANOMALY": 110.8217, "EPHEMERIS_TYPE": 0, "CLASSIFICATION_TYPE": "U", "NORAD_CAT_ID": 66483, "ELEMENT_SET_NO": 999, "REV_AT_EPOCH": 503, "BSTAR": -0.00045428, "MEAN_MOTION_DOT": -0.00026907, "MEAN_MOTION_DDOT": 0}, "tle": {"line1": "1 66483U 25262AD  25343.00002315 -.00026907  00000+0 -45428-3 0  9993", "line2": "2 66483  43.0007  92.8677 0001552 269.4145 110.8217 15.50585225  5032"}}, "geometry": {"type": "Point", "coordinates": [-80.19502388106562, -8.973658344804907]}}, {"type": "Feature", "properties": {"norad_id": 66484, "name": "STARLINK-35371", "group": "last-30-days", "lat": -10.248182237918135, "lon": -78.76825000143832, "alt_km": 415.9956990202727, "timestamp": "2025-12-09T11:33:53.574824+00:00", "meta": {"OBJECT_NAME": "STARLINK-35371", "OBJECT_ID": "2025-262AE", "EPOCH": "2025-12-09T00:00:02.000160", "MEAN_MOTION": 15.50643768, "ECCENTRICITY": 0.000168, "INCLINATION": 43.0006, "RA_OF_ASC_NODE": 92.8636, "ARG_OF_PERICENTER": 269.4357, "MEAN_ANOMALY": 112.6978, "EPHEMERIS_TYPE": 0, "CLASSIFICATION_TYPE": "U", "NORAD_CAT_ID": 66484, "ELEMENT_SET_NO": 999, "REV_AT_EPOCH": 503, "BSTAR": -0.0024076, "MEAN_MOTION_DOT": -0.00139424, "MEAN_MOTION_DDOT": 0}, "tle": {"line1": "1 66484U 25262AE  25343.00002315 -.00139424  00000+0 -24076-2 0  9998", "line2": "2 66484  43.0006  92.8636 0001680 269.4357 112.6978 15.50643768  5035"}}, "geometry": {"type": "Point", "coordinates": [-78.76825000143832, -10.248182237918135]}}, {"type": "Feature", "properties": {"norad_id": 66485, "name": "STARLINK-34774", "group": "last-30-days", "lat": 40.31789114077355, "lon": -150.1746028536814, "alt_km": 417.4816345386298, "timestamp": "2025-12-09T11:33:53.574837+00:00", "meta": {"OBJECT_NAME": "STARLINK-34774", "OBJECT_ID": "2025-263A", "EPOCH": "2025-12-09T04:00:01.998720", "MEAN_MOTION": 15.4938018, "ECCENTRICITY": 0.0001336, "INCLINATION": 43.0005, "RA_OF_ASC_NODE": 146.0694, "ARG_OF_PERICENTER": 277.7108, "MEAN_ANOMALY": 194.6787, "EPHEMERIS_TYPE": 0, "CLASSIFICATION_TYPE": "U", "NORAD_CAT_ID": 66485, "ELEMENT_SET_NO": 999, "REV_AT_EPOCH": 506, "BSTAR": -0.042648, "MEAN_MOTION_DOT": -0.02125128, "MEAN_MOTION_DDOT": 0}, "tle": {"line1": "1 66485U 25263A   25343.16668980 -.02125128  00000+0 -42648-1 0  9995", "line2": "2 66485  43.0005 146.0694 0001336 277.7108 194.6787 15.49380180  5060"}}, "geometry": {"type": "Point", "coordinates": [-150.1746028536814, 40.31789114077355]}}, {"type": "Feature", "properties": {"norad_id": 66486, "name": "STARLINK-34844", "group": "last-30-days", "lat": 41.50948020254147, "lon": -144.02621183933996, "alt_km": 409.66776596202544, "timestamp": "2025-12-09T11:33:53.574848+00:00", "meta": {"OBJECT_NAME": "STARLINK-34844", "OBJECT_ID": "2025-263B", "EPOCH": "2025-12-09T04:00:01.998720", "MEAN_MOTION": 15.50749738, "ECCENTRICITY": 0.0001699, "INCLINATION": 43.0006, "RA_OF_ASC_NODE": 146.0628, "ARG_OF_PERICENTER": 275.2187, "MEAN_ANOMALY": 199.6888, "EPHEMERIS_TYPE": 0, "CLASSIFICATION_TYPE": "U", "NORAD_CAT_ID": 66486, "ELEMENT_SET_NO": 999, "REV_AT_EPOCH": 501, "BSTAR": -0.005724, "MEAN_MOTION_DOT": -0.00324583, "MEAN_MOTION_DDOT": 0}, "tle": {"line1": "1 66486U 25263B   25343.16668980 -.00324583  00000+0 -57240-2 0  9995", "line2": "2 66486  43.0006 146.0628 0001699 275.2187 199.6888 15.50749738  5013"}}, "geometry": {"type": "Point", "coordinates": [-144.02621183933996, 41.50948020254147]}}, {"type": "Feature", "properties": {"norad_id": 66487, "name": "STARLINK-34733", "group": "last-30-days", "lat": 41.88375082098866, "lon": -141.56526175931484, "alt_km": 409.36093856261505, "timestamp": "2025-12-09T11:33:53.574860+00:00", "meta": {"OBJECT_NAME": "STARLINK-34733", "OBJECT_ID": "2025-263C", "EPOCH": "2025-12-08T22:00:03.000096", "MEAN_MOTION": 15.50592081, "ECCENTRICITY": 0.0001586, "INCLINATION": 43.0005, "RA_OF_ASC_NODE": 147.5232, "ARG_OF_PERICENTER": 284.6843, "MEAN_ANOMALY": 235.0445, "EPHEMERIS_TYPE": 0, "CLASSIFICATION_TYPE": "U", "NORAD_CAT_ID": 66487, "ELEMENT_SET_NO": 999, "REV_AT_EPOCH": 502, "BSTAR": -0.0004626931, "MEAN_MOTION_DOT": -0.00027403, "MEAN_MOTION_DDOT": 0}, "tle": {"line1": "1 66487U 25263C   25342.91670139 -.00027403  00000+0 -46269-3 0  9998", "line2": "2 66487  43.0005 147.5232 0001586 284.6843 235.0445 15.50592081  5020"}}, "geometry": {"type": "Point", "coordinates": [-141.56526175931484, 41.88375082098866]}}, {"type": "Feature", "properties": {"norad_id": 66488, "name": "STARLINK-35515", "group": "last-30-days", "lat": 42.218369821760554, "lon": -138.96660285140726, "alt_km": 409.51946117694206, "timestamp": "2025-12-09T11:33:53.574870+00:00", "meta": {"OBJECT_NAME": "STARLINK-35515", "OBJECT_ID": "2025-263D", "EPOCH": "2025-12-09T04:00:01.998720", "MEAN_MOTION": 15.50742204, "ECCENTRICITY": 0.000161, "INCLINATION": 43.0004, "RA_OF_ASC_NODE": 146.0537, "ARG_OF_PERICENTER": 275.5214, "MEAN_ANOMALY": 203.226, "EPHEMERIS_TYPE": 0, "CLASSIFICATION_TYPE": "U", "NORAD_CAT_ID": 66488, "ELEMENT_SET_NO": 999, "REV_AT_EPOCH": 506, "BSTAR": -0.005485, "MEAN_MOTION_DOT": -0.00311471, "MEAN_MOTION_DDOT": 0}, "tle": {"line1": "1 66488U 25263D   25343.16668980 -.00311471  00000+0 -54850-2 0  9993", "line2": "2 66488  43.0004 146.0537 0001610 275.5214 203.2260 15.50742204  5061"}}, "geometry": {"type": "Point", "coordinates": [-138.96660285140726, 42.218369821760554]}}, {"type": "Feature", "properties": {"norad_id": 66489, "name": "STARLINK-35696", "group": "last-30-days", "lat": 42.48324154610115, "lon": -136.45446783276242, "alt_km": 409.5581666779781, "timestamp": "2025-12-09T11:33:53.574880+00:00", "meta": {"OBJECT_NAME": "STARLINK-35696", "OBJECT_ID": "2025-263E", "EPOCH": "2025-12-09T04:00:01.998720", "MEAN_MOTION": 15.50608437, "ECCENTRICITY": 0.0001782, "INCLINATION": 43.0007, "RA_OF_ASC_NODE": 146.0481, "ARG_OF_PERICENTER": 275.5449, "MEAN_ANOMALY": 205.1518, "EPHEMERIS_TYPE": 0, "CLASSIFICATION_TYPE": "U", "NORAD_CAT_ID": 66489, "ELEMENT_SET_NO": 999, "REV_AT_EPOCH": 506, "BSTAR": -0.001709, "MEAN_MOTION_DOT": -0.00099443, "MEAN_MOTION_DDOT": 0}, "tle": {"line1": "1 66489U 25263E   25343.16668980 -.00099443  00000+0 -17090-2 0  9991", "line2": "2 66489  43.0007 146.0481 0001782 275.5449 205.1518 15.50608437  5069"}}, "geometry": {"type": "Point", "coordinates": [-136.45446783276242, 42.48324154610115]}}, {"type": "Feature", "properties": {"norad_id": 66490, "name": "STARLINK-35693", "group": "last-30-days", "lat": 42.69792985579308, "lon": -133.84194033708633, "alt_km": 409.38172445856344, "timestamp": "2025-12-09T11:33:53.574890+00:00", "meta": {"OBJECT_NAME": "STARLINK-35693", "OBJECT_ID": "2025-263F", "EPOCH": "2025-12-09T04:00:01.998720", "MEAN_MOTION": 15.50701267, "ECCENTRICITY": 0.0001592, "INCLINATION": 43.0007, "RA_OF_ASC_NODE": 146.0443, "ARG_OF_PERICENTER": 280.8875, "MEAN_ANOMALY": 201.6883, "EPHEMERIS_TYPE": 0, "CLASSIFICATION_TYPE": "U", "NORAD_CAT_ID": 66490, "ELEMENT_SET_NO": 999, "REV_AT_EPOCH": 506, "BSTAR": -0.0040706, "MEAN_MOTION_DOT": -0.00233192, "MEAN_MOTION_DDOT": 0}, "tle": {"line1": "1 66490U 25263F   25343.16668980 -.00233192  00000+0 -40706-2 0  9994", "line2": "2 66490  43.0007 146.0443 0001592 280.8875 201.6883 15.50701267  5061"}}, "geometry": {"type": "Point", "coordinates": [-133.84194033708633, 42.69792985579308]}}, {"type": "Feature", "properties": {"norad_id": 66491, "name": "STARLINK-35663", "group": "last-30-days", "lat": 42.946539871978274, "lon": -128.58854027185214, "alt_km": 409.53217082299216, "timestamp": "2025-12-09T11:33:53.574903+00:00", "meta": {"OBJECT_NAME": "STARLINK-35663", "OBJECT_ID": "2025-263G", "EPOCH": "2025-12-09T04:00:01.998720", "MEAN_MOTION": 15.50763335, "ECCENTRICITY": 0.0001715, "INCLINATION": 43.0006, "RA_OF_ASC_NODE": 146.0343, "ARG_OF_PERICENTER": 274.0149, "MEAN_ANOMALY": 212.3996, "EPHEMERIS_TYPE": 0, "CLASSIFICATION_TYPE": "U", "NORAD_CAT_ID": 66491, "ELEMENT_SET_NO": 999, "REV_AT_EPOCH": 506, "BSTAR": -0.0061315, "MEAN_MOTION_DOT": -0.00346867, "MEAN_MOTION_DDOT": 0}, "tle": {"line1": "1 66491U 25263G   25343.16668980 -.00346867  00000+0 -61315-2 0  9998", "line2": "2 66491  43.0006 146.0343 0001715 274.0149 212.3996 15.50763335  5064"}}, "geometry": {"type": "Point", "coordinates": [-128.58854027185214, 42.946539871978274]}}, {"type": "Feature", "properties": {"norad_id": 66492, "name": "STARLINK-35673", "group": "last-30-days", "lat": 42.97160132606349, "lon": -127.20089454983767, "alt_km": 413.6909548784779, "timestamp": "2025-12-09T11:33:53.574916+00:00", "meta": {"OBJECT_NAME": "STARLINK-35673", "OBJECT_ID": "2025-263H", "EPOCH": "2025-12-09T04:00:01.998720", "MEAN_MOTION": 15.50599743, "ECCENTRICITY": 0.0001477, "INCLINATION": 43.0004, "RA_OF_ASC_NODE": 146.0286, "ARG_OF_PERICENTER": 285.3998, "MEAN_ANOMALY": 202.9333, "EPHEMERIS_TYPE": 0, "CLASSIFICATION_TYPE": "U", "NORAD_CAT_ID": 66492, "ELEMENT_SET_NO": 999, "REV_AT_EPOCH": 506, "BSTAR": -0.041088, "MEAN_MOTION_DOT": -0.02137303, "MEAN_MOTION_DDOT": 0}, "tle": {"line1": "1 66492U 25263H   25343.16668980 -.02137303  00000+0 -41088-1 0  9998", "line2": "2 66492  43.0004 146.0286 0001477 285.3998 202.9333 15.50599743  5061"}}, "geometry": {"type": "Point", "coordinates": [-127.20089454983767, 42.97160132606349]}}]}